AMAZONAS 1              
1 28393U 04031A   17208.84471861 -.00000004  00000-0  00000-0 0  9995
2 28393   1.8369  83.6116 0012352  19.8639 227.8315  0.98453506 47513
AMC-15                  
1 28446U 04041A   17208.58729865 -.00000111  00000-0  00000-0 0  9995
2 28446   0.0441 289.6275 0002007 202.9666 279.2217  1.00270868 46837
AMC-16                  
1 28472U 04048A   17208.63590987 -.00000228  00000-0  00000-0 0  9997
2 28472   0.0458 282.4029 0002639 199.0805 327.9295  1.00272678 46269
NSS-10 (AMC-12)         
1 28526U 05003A   17208.40049291 -.00000273  00000-0  00000-0 0  9991
2 28526   0.0611 281.7218 0002631 199.7007 290.5464  1.00271194 20622
XTAR-EUR                
1 28542U 05005A   17208.07246877  .00000128  00000-0  00000-0 0  9991
2 28542   0.0157  59.0623 0002417  53.2327 247.7306  1.00270445 45626
XM-3 (RHYTHM)           
1 28626U 05008A   17208.63590987 -.00000227  00000-0  00000-0 0  9994
2 28626   0.0206 245.2986 0000046 193.4789  10.5180  1.00270700 45518
INMARSAT 4-F1           
1 28628U 05009A   17207.79101895 -.00000284  00000-0  00000-0 0  9992
2 28628   2.8804  12.5682 0002579 112.6575 247.6924  1.00271461 45111
APSTAR 6                
1 28638U 05012A   17208.79702043 -.00000341  00000-0  00000-0 0  9994
2 28638   0.0392  81.6938 0002322  55.8168 229.0247  1.00267997 69866
SPACEWAY 1              
1 28644U 05015A   17208.58729865 -.00000124  00000-0  00000-0 0  9991
2 28644   0.0134 211.3384 0000209 203.4438 359.1667  1.00269518 14038
DIRECTV 8               
1 28659U 05019A   17208.43220215 -.00000138  00000-0  00000-0 0  9995
2 28659   0.0200  52.2279 0002982  75.5023 232.2968  1.00269676 44630
GALAXY 28 (G-28)        
1 28702U 05022A   17208.61175575 -.00000207  00000-0  00000-0 0  9993
2 28702   0.0220  70.4398 0000907 311.6260  54.6294  1.00270593 19558
EXPRESS-AM3             
1 28707U 05023A   17206.98036124 -.00000346  00000-0  00000-0 0  9997
2 28707   0.0542 232.8429 0001276  51.6355 115.2744  1.00269114 44284
THAICOM 4               
1 28786U 05028A   17208.82847589 -.00000385  00000-0  00000-0 0  9992
2 28786   0.0169  62.2840 0002109  59.7612 241.3600  1.00271577 43770
GALAXY 14 (G-14)        
1 28790U 05030A   17208.59698868  .00000015  00000-0  00000-0 0  9997
2 28790   0.0226  83.3679 0002455  37.3290 274.6696  1.00271318 43767
ANIK F1R                
1 28868U 05036A   17208.58729865 -.00000096  00000-0  00000-0 0  9990
2 28868   0.0310 310.6573 0002057 137.9438 320.9425  1.00271908 13953
GALAXY 15 (G-15)        
1 28884U 05041A   17208.59698868  .00000057  00000-0  00000-0 0  9999
2 28884   0.0209 303.8641 0001191 171.8653 271.6455  1.00271484 43072
SYRACUSE 3A             
1 28885U 05041B   17208.76144410  .00000106  00000-0  00000-0 0  9993
2 28885   0.0100  35.4542 0002826 105.1930 126.1097  1.00275951 43175
INMARSAT 4-F2           
1 28899U 05044A   17208.01133192 -.00000012  00000-0  00000-0 0  9991
2 28899   2.5787  12.4560 0002519 118.9628 241.4255  1.00272842 42967
TELKOM 2                
1 28902U 05046A   17208.74354873 -.00000160  00000-0  00000-0 0  9993
2 28902   0.0157 233.2050 0001822 252.7396 244.3328  1.00271211 42881
SPACEWAY 2              
1 28903U 05046B   17208.53342147 -.00000148  00000-0  00000-0 0  9998
2 28903   0.0125 105.1710 0000363 258.2220  34.9646  1.00269449 18781
INSAT-4A                
1 28911U 05049A   17207.92262582 -.00000189  00000-0  00000-0 0  9991
2 28911   0.0097   1.4470 0002039 223.3281 135.2084  1.00269445 42538
METEOSAT-9 (MSG-2)      
1 28912U 05049B   17208.76920979  .00000039  00000-0  00000-0 0  9999
2 28912   2.2799  71.2442 0001097   8.6325 152.2445  1.00263803 42488
EUTELSAT 172A (GE-23)   
1 28924U 05052A   17208.75657382 -.00000028  00000-0  00000-0 0  9999
2 28924   0.0636   6.4329 0005513 117.4116 266.1110  1.00271123 42438
ECHOSTAR 10             
1 28935U 06003A   17208.23104911 -.00000078  00000-0  00000-0 0  9991
2 28935   0.0418 268.3888 0001907 257.0107 112.6560  1.00272381 41925
HIMAWARI-7 (MTSAT-2)    
1 28937U 06004A   17208.89113493 -.00000265  00000-0  00000-0 0  9999
2 28937   0.0760 258.6093 0004056 232.0801 280.8746  1.00271634 41923
SPAINSAT                
1 28945U 06007A   17208.23590023 -.00000239  00000-0  00000-0 0  9998
2 28945   0.0608 253.4204 0003595 254.9337 211.6473  1.00270452 41672
EUTELSAT HOT BIRD 13E   
1 28946U 06007B   17208.11686555  .00000063  00000-0  00000-0 0  9996
2 28946   0.0517 118.0872 0006062  32.4096 209.5173  1.00272946 41743
JCSAT-5A                
1 29045U 06010A   17208.75993387 -.00000350  00000-0  00000-0 0  9995
2 29045   0.0414 254.2784 0001584 221.9132 235.0115  1.00269996 41397
ASTRA 1KR               
1 29055U 06012A   17208.59632638  .00000098  00000-0  00000-0 0  9997
2 29055   0.0954 273.0690 0002890 267.1421 359.1049  1.00274321 41196
GOES 13                 
1 29155U 06018A   17208.35925454 -.00000273  00000-0  00000-0 0  9995
2 29155   0.0835 265.4558 0003815 199.1890 255.3773  1.00271606 40963
EUTELSAT 113 WEST A     
1 29162U 06020A   17208.46575757 -.00000060  00000-0  00000-0 0  9999
2 29162   0.0278 250.2854 0002686 237.3371 232.3819  1.00272895 40919
THAICOM 5               
1 29163U 06020B   17208.84395955 -.00000143  00000-0  00000-0 0  9994
2 29163   0.0038 265.6908 0001947 266.4967 155.8103  1.00273105 40940
GALAXY 16 (G-16)        
1 29236U 06023A   17208.58240384 -.00000149  00000-0  00000-0 0  9990
2 29236   0.0142  82.5240 0002736  46.3292 287.2519  1.00270159 40717
EUTELSAT HOT BIRD 13B   
1 29270U 06032A   17208.73780633  .00000065  00000-0  00000-0 0  9997
2 29270   0.0723  39.4797 0002872  60.0031 124.6988  1.00272324 14770
JCSAT-3A                
1 29272U 06033A   17208.72962709 -.00000367  00000-0  00000-0 0  9991
2 29272   0.0424 253.0523 0002290 236.7064 206.4858  1.00271627 40200
SYRACUSE 3B             
1 29273U 06033B   17208.68379275 -.00000066  00000-0  00000-0 0  9993
2 29273   0.0183  90.2790 0003196  18.0680  78.1287  1.00271925 40167
KOREASAT 5 (MUGUNGWHA 5)
1 29349U 06034A   17208.84212748 -.00000380  00000-0  00000-0 0  9996
2 29349   0.0218  81.8037 0001862  71.6779 208.4336  1.00266681  8768
ZHONGXING-22A           
1 29398U 06038A   17208.92992622 -.00000342  00000-0  00000-0 0  9997
2 29398   5.8586  57.5310 0004801 152.2531 172.5023  1.00269528 39856
DIRECTV 9S              
1 29494U 06043A   17208.58677782 -.00000136  00000-0  00000-0 0  9990
2 29494   0.0143 105.3614 0003330  19.9257 290.2999  1.00270067 39555
OPTUS D1                
1 29495U 06043B   17208.82202105 -.00000133  00000-0  00000-0 0  9998
2 29495   0.0609 268.1327 0003434 216.2732 277.1766  1.00271287 39569
XM-4 (BLUES)            
1 29520U 06049A   17208.59212583 -.00000045  00000-0  00000-0 0  9990
2 29520   0.0082 305.1791 0000186 308.9421 149.2438  1.00271095 18924
BADR-4                  
1 29526U 06051A   17208.73938160  .00000123  00000-0  00000-0 0  9997
2 29526   0.0573 323.1214 0001142 128.0565 146.6076  1.00276402 18755
FENGYUN 2D              
1 29640U 06053A   17208.55694572 -.00000384  00000-0  10000-3 0  9996
2 29640   4.5243  64.2075 0005670 316.4548 248.9884  1.00276011 39007
WILDBLUE-1              
1 29643U 06054A   17208.58729865 -.00000071  00000-0  00000-0 0  9996
2 29643   0.0172 103.1954 0001454   4.3542 298.1477  1.00270247 38991
AMC-18                  
1 29644U 06054B   17208.58729865 -.00000111  00000-0  00000-0 0  9992
2 29644   0.0338 265.0028 0002420 209.5853 297.3262  1.00272075 39001
MEASAT-3                
1 29648U 06056A   17208.71434816 -.00000263  00000-0  00000-0 0  9990
2 29648   0.0341 182.6535 0003533 309.4368 162.1115  1.00269417 39005
INSAT-4B                
1 30793U 07007A   17208.80302987 -.00000280  00000-0  00000-0 0  9992
2 30793   0.0366 258.8622 0007315 200.0924 229.2502  1.00273029 38002
SKYNET 5A               
1 30794U 07007B   17208.77421851 -.00000293  00000-0  00000-0 0  9995
2 30794   0.0655   1.8612 0003682 137.8006 179.8550  1.00270031 38148
ANIK F3                 
1 31102U 07009A   17208.59212583 -.00000023  00000-0  00000-0 0  9992
2 31102   0.0173  67.1184 0001921  42.3248 290.4415  1.00271624 14006
ASTRA 1L                
1 31306U 07016A   17208.74424348  .00000098  00000-0  00000-0 0  9998
2 31306   0.1078 291.0548 0000567 204.4001  97.2656  1.00274508 37483
GALAXY 17 (G-17)        
1 31307U 07016B   17208.63590987 -.00000196  00000-0  00000-0 0  9990
2 31307   0.0195   5.3288 0003031 117.3799 320.6913  1.00273321 37521
ZHONGXING-6B            
1 31800U 07031A   17208.84212748 -.00000384  00000-0  00000-0 0  9993
2 31800   0.0165  75.7746 0002224  50.7767 237.8442  1.00271939 36881
DIRECTV 10              
1 31862U 07032A   17208.43759522 -.00000125  00000-0  00000-0 0  9996
2 31862   0.0152 277.1801 0000188 355.2035  87.6142  1.00268469 13071
SPACEWAY 3              
1 32018U 07036A   17208.58240384 -.00000173  00000-0  00000-0 0  9994
2 32018   0.0154 249.3780 0000341 146.0802  24.6858  1.00271345 36575
BSAT-3A                 
1 32019U 07036B   17208.84564681 -.00000372  00000-0  00000-0 0  9994
2 32019   0.0563 239.3565 0002944 300.9178 179.7060  1.00271573 17948
INSAT-4CR               
1 32050U 07037A   17208.64132042  .00000102  00000-0  00000-0 0  9990
2 32050   0.0467 102.2440 0002552  13.7615 108.2470  1.00275945 36294
OPTUS D2                
1 32252U 07044A   17208.68865479 -.00000206  00000-0  00000-0 0  9999
2 32252   0.0554 265.6934 0003636 217.5540 222.1989  1.00270504 36019
INTELSAT 11 (IS-11)     
1 32253U 07044B   17208.36365461 -.00000291  00000-0  00000-0 0  9995
2 32253   0.0176 241.0640 0001632 254.1834 257.9074  1.00268719 36048
STAR ONE C1             
1 32293U 07056A   17208.33287216 -.00000299  00000-0  00000-0 0  9998
2 32293   0.0150 309.0927 0002793 180.3656 230.5664  1.00268481 35551
